STARLINK-4306           
1 53067U 22077AA  23236.80477422  .00000017  00000+0  59200-5 0  9997
2 53067  97.6561  56.8829 0001911 143.8682 216.2671 15.01260403 61700
STARLINK-4325           
1 53068U 22077AB  23236.74367409  .00000048  00000+0  83412-5 0  9990
2 53068  97.6555  56.8154 0002566 173.0033 187.1228 15.01260054 61691
STARLINK-4323           
1 53069U 22077AC  23236.53446212  .00000112  00000+0  13291-4 0  9997
2 53069  97.6575  56.6174 0002182 147.1379 212.9981 15.01260759 61665
STARLINK-4342           
1 53070U 22077AD  23236.80662593 -.00000155  00000+0 -74573-5 0  9991
2 53070  97.6558  56.8847 0002251 146.4303 213.7065 15.01259620 61705
STARLINK-4328           
1 53071U 22077AE  23236.93252549  .00000407  00000+0  36241-4 0  9999
2 53071  97.6580  57.0102 0001591 114.3659 245.7732 15.01261364 61728
STARLINK-4344           
1 53072U 22077AF  23236.91795690 -.00000549  00000+0 -38174-4 0  9993
2 53072  97.6570  57.0488 0002249  85.7924 274.3557 15.01256644 61720
STARLINK-4346           
1 53073U 22077AG  23236.92882124  .00000552  00000+0  47547-4 0  9990
2 53073  97.6598  57.0116 0001140  94.6541 265.4814 15.01259819 61726
STARLINK-4310           
1 53074U 22077AH  23236.53285397  .00000453  00000+0  39821-4 0  9993
2 53074  97.6581  56.6162 0001244 114.4373 245.6981 15.01261524 61668
STARLINK-4348           
1 53075U 22077AJ  23236.93067367  .00000530  00000+0  45823-4 0  9998
2 53075  97.6594  56.9982 0001361  87.3938 272.7442 15.01261092 61721
STARLINK-4347           
1 53076U 22077AK  23236.92907000  .00000242  00000+0  23419-4 0  9992
2 53076  97.6599  57.0155 0001888  74.2171 285.9261 15.01269002 61723
STARLINK-4315           
1 53077U 22077AL  23236.59000432  .00000812  00000+0  67823-4 0  9999
2 53077  97.6582  56.6844 0001266  83.2852 276.8516 15.01262709 61675
STARLINK-4322           
1 53078U 22077AM  23236.92696977  .00000796  00000+0  66527-4 0  9993
2 53078  97.6591  57.0123 0001178  81.3438 278.7920 15.01262296 61729
STARLINK-4327           
1 53079U 22077AN  23236.52150114  .00000773  00000+0  64773-4 0  9994
2 53079  97.6580  56.6188 0001772  82.4392 277.7033 15.01263804 61668
STARLINK-4330           
1 53080U 22077AP  23236.92511803  .00000651  00000+0  55247-4 0  9997
2 53080  97.6588  57.0128 0001131  95.8006 264.3347 15.01261381 61721
STARLINK-4326           
1 53081U 22077AQ  23236.80292724  .00000206  00000+0  20672-4 0  9993
2 53081  97.6569  56.8388 0002906 155.3493 204.7870 15.01260481 61706
STARLINK-4321           
1 53082U 22077AR  23236.91956489  .00000411  00000+0  36576-4 0  9999
2 53082  97.6578  57.0119 0001816  79.3216 280.8213 15.01261381 61727
STARLINK-4251           
1 53083U 22077AS  23236.57334625 -.00000074  00000+0 -11654-5 0  9992
2 53083  97.6562  56.6732 0003104  63.7760 296.3783 15.01260373 61678
STARLINK-4319           
1 53084U 22077AT  23236.58445081  .00000871  00000+0  72416-4 0  9998
2 53084  97.6574  56.6823 0002241  79.7598 280.3879 15.01262739 61677
STARLINK-4324           
1 53085U 22077AU  23236.57916015  .00001351  00000+0  10982-3 0  9991
2 53085  97.6568  56.6827 0003031  75.5097 284.6463 15.01250453 61677
STARLINK-4318           
1 53086U 22077AV  23236.58259851  .00000889  00000+0  73821-4 0  9998
2 53086  97.6572  56.6817 0002507  81.8558 278.2951 15.01263552 61676
STARLINK-4329           
1 53087U 22077AW  23236.58075085  .00000552  00000+0  47599-4 0  9994
2 53087  97.6568  56.6721 0002890  72.4146 287.7394 15.01261525 61674
STARLINK-4333           
1 53088U 22077AX  23236.57889607  .00000735  00000+0  61836-4 0  9990
2 53088  97.6566  56.6785 0002949  80.2055 279.9503 15.01263147 61671
STARLINK-4063           
1 53132U 22083A   23236.37893866 -.00000020  00000+0  16820-4 0  9998
2 53132  53.2162  21.4732 0001151  91.9193 268.1931 15.08836020 61071
STARLINK-4154           
1 53133U 22083B   23236.79477956  .00001437  00000+0  10833-3 0  9992
2 53133  53.2181  19.6009 0000885 114.8692 245.2392 15.08842206 61127
STARLINK-4150           
1 53134U 22083C   23236.45254592  .00001252  00000+0  96717-4 0  9996
2 53134  53.2197  21.1377 0001095  94.2282 265.8835 15.08836492 61086
STARLINK-4023           
1 53135U 22083D   23236.45990377  .00000886  00000+0  73768-4 0  9998
2 53135  53.2193  21.1104 0001067  92.4338 267.6776 15.08839764 62071
STARLINK-4152           
1 53136U 22083E   23236.38998607  .00001474  00000+0  11067-3 0  9992
2 53136  53.2195  21.4222 0000719  72.4526 287.6545 15.08839017 62064
STARLINK-4145           
1 53137U 22083F   23236.44886451  .00000819  00000+0  69576-4 0  9994
2 53137  53.2186  21.1574 0001379  81.1932 278.9216 15.08831403 61083
STARLINK-4141           
1 53138U 22083G   23236.71246409  .00002049  00000+0  14675-3 0  9994
2 53138  53.2179  15.1548 0001280  73.5732 286.5401 15.08842702 61966
STARLINK-4185           
1 53139U 22083H   23236.50406503  .00000102  00000+0  24467-4 0  9994
2 53139  53.2185  20.9084 0001007  82.8085 277.3021 15.08835129 61099
STARLINK-4170           
1 53140U 22083J   23236.50774738  .00000726  00000+0  63687-4 0  9993
2 53140  53.2171  20.8918 0001365  85.1269 274.9879 15.08835865 61099
STARLINK-4103           
1 53141U 22083K   23236.82052794 -.00006542  00000+0 -39306-3 0  9994
2 53141  53.2174  19.4886 0001235  91.9708 268.1425 15.08865507 61144
STARLINK-4101           
1 53142U 22083L   23236.50038453  .00000943  00000+0  77343-4 0  9997
2 53142  53.2177  20.9275 0001095  91.1152 268.9965 15.08838699 61101
STARLINK-4102           
1 53143U 22083M   23236.55190304  .00001558  00000+0  11596-3 0  9997
2 53143  53.2185  20.6902 0001235  87.3254 272.7879 15.08837616 61106
STARLINK-4100           
1 53144U 22083N   23236.43046354  .00000163  00000+0  28305-4 0  9998
2 53144  53.2165  21.2401 0001288 101.9927 258.1209 15.08837878 61086
STARLINK-4106           
1 53145U 22083P   23236.74326366  .00000259  00000+0  34388-4 0  9991
2 53145  53.2171  19.8372 0001352  80.9369 279.1776 15.08845622 61136
STARLINK-4099           
1 53146U 22083Q   23236.55926292  .00001192  00000+0  92931-4 0  9990
2 53146  53.2176  20.6576 0001021  78.2374 281.8732 15.08841544 61105
STARLINK-4094           
1 53147U 22083R   23236.73957972  .00003996  00000+0  26895-3 0  9999
2 53147  53.2161  19.8523 0001184  73.8529 286.2593 15.08852174 61784
STARLINK-4066           
1 53148U 22083S   23236.81413953  .00005469  00000+0  36153-3 0  9990
2 53148  53.2175  19.5243 0001181  80.4378 279.6748 15.08830188 61148
STARLINK-4021           
1 53149U 22083T   23236.48290472  .00000960  00000+0  78394-4 0  9998
2 53149  53.2190  11.0003 0001460 102.6410 257.4746 15.08838765 61232
STARLINK-4038           
1 53150U 22083U   23236.52338643  .00003283  00000+0  22415-3 0  9991
2 53150  53.2169  10.8266 0001216  67.8965 292.2156 15.08853299 61235
STARLINK-4040           
1 53151U 22083V   23236.51234186  .00000865  00000+0  72436-4 0  9990
2 53151  53.2189  10.8704 0001071  64.0011 296.1092 15.08843413 61234
STARLINK-4045           
1 53152U 22083W   23236.51970290  .00000763  00000+0  66015-4 0  9997
2 53152  53.2176  10.8389 0001223  78.3949 281.7181 15.08839442 61233
STARLINK-4098           
1 53153U 22083X   23236.37618435 -.00000231  00000+0  35540-5 0  9993
2 53153  53.2199  11.4839 0001127  83.4083 276.7038 15.08843784 61212
STARLINK-4077           
1 53154U 22083Y   23236.51602271  .00000633  00000+0  57838-4 0  9999
2 53154  53.2196  10.8587 0001021  75.9587 284.1519 15.08840727 61234
STARLINK-4088           
1 53155U 22083Z   23236.50130314  .00000513  00000+0  50282-4 0  9996
2 53155  53.2200  10.9171 0000998  78.3955 281.7149 15.08847214 61879
STARLINK-4087           
1 53156U 22083AA  23236.88769449  .00010685  00000+0  68876-3 0  9993
2 53156  53.2189   9.0566 0001224  77.8764 282.2365 15.08822470 61297
STARLINK-4093           
1 53157U 22083AB  23236.42770756  .00001466  00000+0  11021-3 0  9994
2 53157  53.2198  11.2499 0000942  68.7287 291.3806 15.08835406 61220
STARLINK-4054           
1 53158U 22083AC  23236.50498306  .00001188  00000+0  92672-4 0  9995
2 53158  53.2196  10.9030 0000959 107.0744 253.0353 15.08843016 61238
STARLINK-4111           
1 53159U 22083AD  23236.48658150  .00001112  00000+0  87944-4 0  9991
2 53159  53.2185  10.9865 0000993  89.9201 270.1905 15.08844548 61231
STARLINK-4096           
1 53160U 22083AE  23236.49762255  .00000750  00000+0  65203-4 0  9997
2 53160  53.2186  10.9367 0001701 123.3032 236.8123 15.08844314 61236
STARLINK-4055           
1 53161U 22083AF  23236.47554334  .00000835  00000+0  70563-4 0  9992
2 53161  53.2179  11.0354 0001360 107.7054 252.4087 15.08840319 61232
STARLINK-4114           
1 53162U 22083AG  23236.75618030  .00002834  00000+0  19606-3 0  9999
2 53162  53.2195   9.7859 0001316  89.0598 271.0544 15.08844604 61271
STARLINK-4104           
1 53163U 22083AH  23236.53538325  .00000726  00000+0  63674-4 0  9997
2 53163  53.2186  10.7662 0001393  62.8398 297.2736 15.08836779 61242
STARLINK-4116           
1 53164U 22083AJ  23236.81041581  .00003182  00000+0  21796-3 0  9999
2 53164  53.2192   9.5248 0001841 170.8249 189.2777 15.08837033 61282
STARLINK-4090           
1 53165U 22083AK  23236.72946271  .00003071  00000+0  21094-3 0  9998
2 53165  53.2193   9.8934 0001366  98.7112 261.4035 15.08844028 61279
STARLINK-4110           
1 53166U 22083AL  23236.47186172  .00001123  00000+0  88670-4 0  9997
2 53166  53.2188  11.0527 0001056  78.8915 281.2196 15.08832690 61239
STARLINK-3683           
1 53167U 22083AM  23236.68115696  .00000788  00000+0  67575-4 0  9991
2 53167  53.2195 355.0993 0001192 112.0245 248.0874 15.08845333 61461
STARLINK-4105           
1 53168U 22083AN  23236.79938044  .00001057  00000+0  84453-4 0  9998
2 53168  53.2175   9.5812 0001321  93.4077 266.7066 15.08845586 61280
